1 08820U 76039A   03007.13692080  .00000001  00000-0  10000-3 0  8862
2 08820 109.8365 126.4506 0044296 335.8860  23.9664  6.38664558366774
